{
  "type": "FeatureCollection",
  "features": [
    {
      "type": "Feature",
      "properties": {
        "norad_id": 28054,
        "name": "DMSP 5D-3 F16 (USA 172)",
        "group": "weather",
        "lat": -74.79777028470333,
        "lon": 137.9404281986641,
        "alt_km": 852.0138395621834,
        "timestamp": "2025-12-02T06:27:52.663564+00:00",
        "meta_object_name": "DMSP 5D-3 F16 (USA 172)",
        "meta_object_id": "2003-048A",
        "meta_epoch": "2025-12-01T19:36:51.155136",
        "meta_mean_motion": 14.14417747,
        "meta_eccentricity": 0.0006957,
        "meta_inclination": 99.0054,
        "meta_ra_of_asc_node": 353.188,
        "meta_arg_of_pericenter": 353.9696,
        "meta_mean_anomaly": 123.0126,
        "meta_ephemeris_type": 0,
        "meta_classification_type": "U",
        "meta_norad_cat_id": 28054,
        "meta_element_set_no": 999,
        "meta_rev_at_epoch": 14158,
        "meta_bstar": 0.00010876,
        "meta_mean_motion_dot": 1.63e-06,
        "meta_mean_motion_ddot": 0,
        "tle_line1": "1 28054U 03048A   25335.81725874  .00000163  00000+0  10876-3 0  9998",
        "tle_line2": "2 28054  99.0054 353.1880 0006957 353.9696 123.0126 14.14417747141588"
      },
      "geometry": {
        "type": "Point",
        "coordinates": [
          137.9404281986641,
          -74.79777028470333
        ]
      }
    },
    {
      "type": "Feature",
      "properties": {
        "norad_id": 28912,
        "name": "METEOSAT-9 (MSG-2)",
        "group": "weather",
        "lat": 3.3310413983860685,
        "lon": -145.84659605654096,
        "alt_km": 35770.848055320246,
        "timestamp": "2025-12-02T06:27:52.663614+00:00",
        "meta_object_name": "METEOSAT-9 (MSG-2)",
        "meta_object_id": "2005-049B",
        "meta_epoch": "2025-12-01T19:10:06.009024",
        "meta_mean_motion": 1.00270834,
        "meta_eccentricity": 0.0003965,
        "meta_inclination": 8.913,
        "meta_ra_of_asc_node": 56.0742,
        "meta_arg_of_pericenter": 184.2976,
        "meta_mean_anomaly": 163.6684,
        "meta_ephemeris_type": 0,
        "meta_classification_type": "U",
        "meta_norad_cat_id": 28912,
        "meta_element_set_no": 999,
        "meta_rev_at_epoch": 501,
        "meta_bstar": 0,
        "meta_mean_motion_dot": 1.42e-06,
        "meta_mean_motion_ddot": 0,
        "tle_line1": "1 28912U 05049B   25335.79868066  .00000142  00000+0  00000+0 0  9993",
        "tle_line2": "2 28912   8.9130  56.0742 0003965 184.2976 163.6684  1.00270834  5014"
      },
      "geometry": {
        "type": "Point",
        "coordinates": [
          -145.84659605654096,
          3.3310413983860685
        ]
      }
    },
    {
      "type": "Feature",
      "properties": {
        "norad_id": 29522,
        "name": "DMSP 5D-3 F17 (USA 191)",
        "group": "weather",
        "lat": 0.2332111045867473,
        "lon": 161.912188020991,
        "alt_km": 844.1204498809648,
        "timestamp": "2025-12-02T06:27:52.663633+00:00",
        "meta_object_name": "DMSP 5D-3 F17 (USA 191)",
        "meta_object_id": "2006-050A",
        "meta_epoch": "2025-12-01T19:26:03.401376",
        "meta_mean_motion": 14.14911795,
        "meta_eccentricity": 0.0009132,
        "meta_inclination": 98.7395,
        "meta_ra_of_asc_node": 341.4263,
        "meta_arg_of_pericenter": 259.046,
        "meta_mean_anomaly": 100.9686,
        "meta_ephemeris_type": 0,
        "meta_classification_type": "U",
        "meta_norad_cat_id": 29522,
        "meta_element_set_no": 999,
        "meta_rev_at_epoch": 98450,
        "meta_bstar": 0.00012476,
        "meta_mean_motion_dot": 1.98e-06,
        "meta_mean_motion_ddot": 0,
        "tle_line1": "1 29522U 06050A   25335.80976159  .00000198  00000+0  12476-3 0  9994",
        "tle_line2": "2 29522  98.7395 341.4263 0009132 259.0460 100.9686 14.14911795984505"
      },
      "geometry": {
        "type": "Point",
        "coordinates": [
          161.912188020991,
          0.2332111045867473
        ]
      }
    },
    {
      "type": "Feature",
      "properties": {
        "norad_id": 32958,
        "name": "FENGYUN 3A",
        "group": "weather",
        "lat": 77.45371192148139,
        "lon": -127.25620434373387,
        "alt_km": 820.5930269291403,
        "timestamp": "2025-12-02T06:27:52.663645+00:00",
        "meta_object_name": "FENGYUN 3A",
        "meta_object_id": "2008-026A",
        "meta_epoch": "2025-12-01T19:56:06.687744",
        "meta_mean_motion": 14.19508753,
        "meta_eccentricity": 0.0008432,
        "meta_inclination": 98.6681,
        "meta_ra_of_asc_node": 275.588,
        "meta_arg_of_pericenter": 343.8626,
        "meta_mean_anomaly": 16.2281,
        "meta_ephemeris_type": 0,
        "meta_classification_type": "U",
        "meta_norad_cat_id": 32958,
        "meta_element_set_no": 999,
        "meta_rev_at_epoch": 90740,
        "meta_bstar": 7.9536e-05,
        "meta_mean_motion_dot": 1.24e-06,
        "meta_mean_motion_ddot": 0,
        "tle_line1": "1 32958U 08026A   25335.83063296  .00000124  00000+0  79536-4 0  9998",
        "tle_line2": "2 32958  98.6681 275.5880 0008432 343.8626  16.2281 14.19508753907404"
      },
      "geometry": {
        "type": "Point",
        "coordinates": [
          -127.25620434373387,
          77.45371192148139
        ]
      }
    },
    {
      "type": "Feature",
      "properties": {
        "norad_id": 35491,
        "name": "GOES 14",
        "group": "weather",
        "lat": -0.48116378294649387,
        "lon": 59.97550926170871,
        "alt_km": 35803.260190110996,
        "timestamp": "2025-12-02T06:27:52.663659+00:00",
        "meta_object_name": "GOES 14",
        "meta_object_id": "2009-033A",
        "meta_epoch": "2025-12-01T19:46:16.523904",
        "meta_mean_motion": 1.00272668,
        "meta_eccentricity": 0.0004117,
        "meta_inclination": 1.1684,
        "meta_ra_of_asc_node": 85.5386,
        "meta_arg_of_pericenter": 148.9484,
        "meta_mean_anomaly": 24.6747,
        "meta_ephemeris_type": 0,
        "meta_classification_type": "U",
        "meta_norad_cat_id": 35491,
        "meta_element_set_no": 999,
        "meta_rev_at_epoch": 461,
        "meta_bstar": 0,
        "meta_mean_motion_dot": -4.6e-07,
        "meta_mean_motion_ddot": 0,
        "tle_line1": "1 35491U 09033A   25335.82380236 -.00000046  00000+0  00000+0 0  9996",
        "tle_line2": "2 35491   1.1684  85.5386 0004117 148.9484  24.6747  1.00272668  4613"
      },
      "geometry": {
        "type": "Point",
        "coordinates": [
          59.97550926170871,
          -0.48116378294649387
        ]
      }
    },
    {
      "type": "Feature",
      "properties": {
        "norad_id": 35951,
        "name": "DMSP 5D-3 F18 (USA 210)",
        "group": "weather",
        "lat": 51.69040566168928,
        "lon": -58.69329220561433,
        "alt_km": 831.3255921402415,
        "timestamp": "2025-12-02T06:27:52.663672+00:00",
        "meta_object_name": "DMSP 5D-3 F18 (USA 210)",
        "meta_object_id": "2009-057A",
        "meta_epoch": "2025-12-01T20:01:59.259360",
        "meta_mean_motion": 14.14758758,
        "meta_eccentricity": 0.0012098,
        "meta_inclination": 98.8822,
        "meta_ra_of_asc_node": 312.2908,
        "meta_arg_of_pericenter": 91.0854,
        "meta_mean_anomaly": 269.1705,
        "meta_ephemeris_type": 0,
        "meta_classification_type": "U",
        "meta_norad_cat_id": 35951,
        "meta_element_set_no": 999,
        "meta_rev_at_epoch": 83168,
        "meta_bstar": 0.00017321,
        "meta_mean_motion_dot": 2.9e-06,
        "meta_mean_motion_ddot": 0,
        "tle_line1": "1 35951U 09057A   25335.83471365  .00000290  00000+0  17321-3 0  9996",
        "tle_line2": "2 35951  98.8822 312.2908 0012098  91.0854 269.1705 14.14758758831680"
      },
      "geometry": {
        "type": "Point",
        "coordinates": [
          -58.69329220561433,
          51.69040566168928
        ]
      }
    },
    {
      "type": "Feature",
      "properties": {
        "norad_id": 36411,
        "name": "EWS-G2 (GOES 15)",
        "group": "weather",
        "lat": 0.44009428791321475,
        "lon": -130.19132347377956,
        "alt_km": 35764.64950832658,
        "timestamp": "2025-12-02T06:27:52.663685+00:00",
        "meta_object_name": "EWS-G2 (GOES 15)",
        "meta_object_id": "2010-008A",
        "meta_epoch": "2025-12-01T19:09:54.389088",
        "meta_mean_motion": 1.00267505,
        "meta_eccentricity": 0.0005886,
        "meta_inclination": 0.7843,
        "meta_ra_of_asc_node": 86.0617,
        "meta_arg_of_pericenter": 169.1247,
        "meta_mean_anomaly": 164.7264,
        "meta_ephemeris_type": 0,
        "meta_classification_type": "U",
        "meta_norad_cat_id": 36411,
        "meta_element_set_no": 999,
        "meta_rev_at_epoch": 5765,
        "meta_bstar": 0,
        "meta_mean_motion_dot": 5.9e-07,
        "meta_mean_motion_ddot": 0,
        "tle_line1": "1 36411U 10008A   25335.79854617  .00000059  00000+0  00000+0 0  9991",
        "tle_line2": "2 36411   0.7843  86.0617 0005886 169.1247 164.7264  1.00267505 57653"
      },
      "geometry": {
        "type": "Point",
        "coordinates": [
          -130.19132347377956,
          0.44009428791321475
        ]
      }
    }
  ]
}